QIANFAN-129             
1 69075U 26104C   26196.88320530  .00000027  00000+0  20250-4 0  9994
2 69075  88.9899 338.5142 0009618  14.2950 345.8475 13.57830367  9043
QIANFAN-130             
1 69076U 26104D   26196.94634785  .00000080  00000+0  10479-3 0  9992
2 69076  88.9902 338.5606 0010906   7.4430 352.6881 13.51009729  9022
QIANFAN-131             
1 69077U 26104E   26196.92365173  .00000004  00000+0 -11226-4 0  9992
2 69077  88.9888 338.5360 0008635  14.2981 345.8417 13.57832948  9039
QIANFAN-132             
1 69078U 26104F   26196.88051898 -.00000053  00000+0 -10071-3 0  9995
2 69078  88.9896 338.5877 0008931   0.1744 359.9408 13.51020073  9007
QIANFAN-133             
1 69079U 26104G   26196.87895626  .00000032  00000+0  27102-4 0  9999
2 69079  88.9898 338.5513 0009734   7.8102 352.3203 13.57838124  9012
QIANFAN-134             
1 69080U 26104H   26196.87378112  .00000015  00000+0  34062-5 0  9992
2 69080  88.9899 338.5676 0010482   3.6705 356.4525 13.57810467  9012
QIANFAN-135             
1 69081U 26104J   26196.91097491  .00000056  00000+0  61150-4 0  9998
2 69081  88.9896 338.5545 0008288  12.1969 347.9385 13.57847259  9022
QIANFAN-136             
1 69082U 26104K   26196.92615853  .00000043  00000+0  42650-4 0  9998
2 69082  88.9897 338.5563 0011128   7.5727 352.5594 13.57857813  9022
QIANFAN-137             
1 69083U 26104L   26196.75201338 -.02038732  00000+0 -29206+1 0  9997
2 69083  88.9905 338.4612 0011780 346.0312  14.0517 13.60019085  9066
QIANFAN-138             
1 69084U 26104M   26196.93049646  .00000006  00000+0 -85874-5 0  9998
2 69084  88.9891 338.5561 0008889   6.9818 353.1458 13.56180324  9021
QIANFAN-139             
1 69085U 26104N   26196.93751675  .00000072  00000+0  83193-4 0  9994
2 69085  88.9895 338.5402 0008447  11.4724 348.6622 13.57844678  9030
QIANFAN-140             
1 69086U 26104P   26196.92946769  .00000007  00000+0 -76276-5 0  9998
2 69086  88.9896 338.5401 0007968  10.4903 349.6416 13.56793530  9037
QIANFAN-141             
1 69087U 26104Q   26196.75125704 -.01992621  00000+0 -30009+1 0  9991
2 69087  88.9892 338.5326 0007583  21.4977 338.6495 13.56802352  9023
QIANFAN-142             
1 69088U 26104R   26196.95510420 -.00000091  00000+0 -14351-3 0  9992
2 69088  88.9893 338.5062 0008961  10.5893 349.5449 13.57841876  9057
QIANFAN-143             
1 69089U 26104S   26196.90573944 -.00000026  00000+0 -53584-4 0  9998
2 69089  88.9901 338.5178 0009932   4.7491 355.3757 13.57826647  9049
QIANFAN-144             
1 69090U 26104T   26196.79338497 -.01782939  00000+0 -30588+1 0  9995
2 69090  88.9897 338.5376 0014035 355.3462   4.7555 13.48696952  9021
