{"fetched_at":"2026-07-16T06:42:36.857Z","source":"https://celestrak.org/NORAD/elements/gp.php?GROUP=qianfan&FORMAT=JSON","constellation":"qianfan","records":[{"OBJECT_NAME":"QIANFAN-129","OBJECT_ID":"2026-104C","EPOCH":"2026-07-15T21:11:48.937920","CLASSIFICATION_TYPE":"U","MEAN_MOTION":13.57830367,"ECCENTRICITY":0.00096185,"INCLINATION":88.9899,"RA_OF_ASC_NODE":338.5142,"ARG_OF_PERICENTER":14.295,"MEAN_ANOMALY":345.8475,"EPHEMERIS_TYPE":0,"NORAD_CAT_ID":69075,"ELEMENT_SET_NO":999,"REV_AT_EPOCH":904,"BSTAR":0.000020250027,"MEAN_MOTION_DOT":2.7e-7,"MEAN_MOTION_DDOT":0},{"OBJECT_NAME":"QIANFAN-130","OBJECT_ID":"2026-104D","EPOCH":"2026-07-15T22:42:44.454240","CLASSIFICATION_TYPE":"U","MEAN_MOTION":13.51009729,"ECCENTRICITY":0.00109061,"INCLINATION":88.9902,"RA_OF_ASC_NODE":338.5606,"ARG_OF_PERICENTER":7.443,"MEAN_ANOMALY":352.6881,"EPHEMERIS_TYPE":0,"NORAD_CAT_ID":69076,"ELEMENT_SET_NO":999,"REV_AT_EPOCH":902,"BSTAR":0.00010479288,"MEAN_MOTION_DOT":8e-7,"MEAN_MOTION_DDOT":0},{"OBJECT_NAME":"QIANFAN-131","OBJECT_ID":"2026-104E","EPOCH":"2026-07-15T22:10:03.509472","CLASSIFICATION_TYPE":"U","MEAN_MOTION":13.57832948,"ECCENTRICITY":0.00086356,"INCLINATION":88.9888,"RA_OF_ASC_NODE":338.536,"ARG_OF_PERICENTER":14.2981,"MEAN_ANOMALY":345.8417,"EPHEMERIS_TYPE":0,"NORAD_CAT_ID":69077,"ELEMENT_SET_NO":999,"REV_AT_EPOCH":903,"BSTAR":-0.00001122594,"MEAN_MOTION_DOT":4e-8,"MEAN_MOTION_DDOT":0},{"OBJECT_NAME":"QIANFAN-132","OBJECT_ID":"2026-104F","EPOCH":"2026-07-15T21:07:56.839872","CLASSIFICATION_TYPE":"U","MEAN_MOTION":13.51020073,"ECCENTRICITY":0.00089316,"INCLINATION":88.9896,"RA_OF_ASC_NODE":338.5877,"ARG_OF_PERICENTER":0.1744,"MEAN_ANOMALY":359.9408,"EPHEMERIS_TYPE":0,"NORAD_CAT_ID":69078,"ELEMENT_SET_NO":999,"REV_AT_EPOCH":900,"BSTAR":-0.00010071175,"MEAN_MOTION_DOT":-5.3e-7,"MEAN_MOTION_DDOT":0},{"OBJECT_NAME":"QIANFAN-133","OBJECT_ID":"2026-104G","EPOCH":"2026-07-15T21:05:41.820864","CLASSIFICATION_TYPE":"U","MEAN_MOTION":13.57838124,"ECCENTRICITY":0.00097342,"INCLINATION":88.9898,"RA_OF_ASC_NODE":338.5513,"ARG_OF_PERICENTER":7.8102,"MEAN_ANOMALY":352.3203,"EPHEMERIS_TYPE":0,"NORAD_CAT_ID":69079,"ELEMENT_SET_NO":999,"REV_AT_EPOCH":901,"BSTAR":0.000027102353,"MEAN_MOTION_DOT":3.2e-7,"MEAN_MOTION_DDOT":0},{"OBJECT_NAME":"QIANFAN-134","OBJECT_ID":"2026-104H","EPOCH":"2026-07-15T20:58:14.688768","CLASSIFICATION_TYPE":"U","MEAN_MOTION":13.57810467,"ECCENTRICITY":0.00104823,"INCLINATION":88.9899,"RA_OF_ASC_NODE":338.5676,"ARG_OF_PERICENTER":3.6705,"MEAN_ANOMALY":356.4525,"EPHEMERIS_TYPE":0,"NORAD_CAT_ID":69080,"ELEMENT_SET_NO":999,"REV_AT_EPOCH":901,"BSTAR":0.00000340618,"MEAN_MOTION_DOT":1.5e-7,"MEAN_MOTION_DDOT":0},{"OBJECT_NAME":"QIANFAN-135","OBJECT_ID":"2026-104J","EPOCH":"2026-07-15T21:51:48.232224","CLASSIFICATION_TYPE":"U","MEAN_MOTION":13.57847259,"ECCENTRICITY":0.00082883,"INCLINATION":88.9896,"RA_OF_ASC_NODE":338.5545,"ARG_OF_PERICENTER":12.1969,"MEAN_ANOMALY":347.9385,"EPHEMERIS_TYPE":0,"NORAD_CAT_ID":69081,"ELEMENT_SET_NO":999,"REV_AT_EPOCH":902,"BSTAR":0.000061150206,"MEAN_MOTION_DOT":5.6e-7,"MEAN_MOTION_DDOT":0},{"OBJECT_NAME":"QIANFAN-136","OBJECT_ID":"2026-104K","EPOCH":"2026-07-15T22:13:40.096992","CLASSIFICATION_TYPE":"U","MEAN_MOTION":13.57857813,"ECCENTRICITY":0.00111288,"INCLINATION":88.9897,"RA_OF_ASC_NODE":338.5563,"ARG_OF_PERICENTER":7.5727,"MEAN_ANOMALY":352.5594,"EPHEMERIS_TYPE":0,"NORAD_CAT_ID":69082,"ELEMENT_SET_NO":999,"REV_AT_EPOCH":902,"BSTAR":0.000042649905,"MEAN_MOTION_DOT":4.3e-7,"MEAN_MOTION_DDOT":0},{"OBJECT_NAME":"QIANFAN-137","OBJECT_ID":"2026-104L","EPOCH":"2026-07-15T18:02:53.956032","CLASSIFICATION_TYPE":"U","MEAN_MOTION":13.60019085,"ECCENTRICITY":0.00117806,"INCLINATION":88.9905,"RA_OF_ASC_NODE":338.4612,"ARG_OF_PERICENTER":346.0312,"MEAN_ANOMALY":14.0517,"EPHEMERIS_TYPE":0,"NORAD_CAT_ID":69083,"ELEMENT_SET_NO":999,"REV_AT_EPOCH":906,"BSTAR":-2.9206363,"MEAN_MOTION_DOT":-0.02038732,"MEAN_MOTION_DDOT":0},{"OBJECT_NAME":"QIANFAN-138","OBJECT_ID":"2026-104M","EPOCH":"2026-07-15T22:19:54.894144","CLASSIFICATION_TYPE":"U","MEAN_MOTION":13.56180324,"ECCENTRICITY":0.00088899,"INCLINATION":88.9891,"RA_OF_ASC_NODE":338.5561,"ARG_OF_PERICENTER":6.9818,"MEAN_ANOMALY":353.1458,"EPHEMERIS_TYPE":0,"NORAD_CAT_ID":69084,"ELEMENT_SET_NO":999,"REV_AT_EPOCH":902,"BSTAR":-0.000008587392,"MEAN_MOTION_DOT":6e-8,"MEAN_MOTION_DDOT":0},{"OBJECT_NAME":"QIANFAN-139","OBJECT_ID":"2026-104N","EPOCH":"2026-07-15T22:30:01.447200","CLASSIFICATION_TYPE":"U","MEAN_MOTION":13.57844678,"ECCENTRICITY":0.00084476,"INCLINATION":88.9895,"RA_OF_ASC_NODE":338.5402,"ARG_OF_PERICENTER":11.4724,"MEAN_ANOMALY":348.6622,"EPHEMERIS_TYPE":0,"NORAD_CAT_ID":69085,"ELEMENT_SET_NO":999,"REV_AT_EPOCH":903,"BSTAR":0.0000831928,"MEAN_MOTION_DOT":7.2e-7,"MEAN_MOTION_DDOT":0},{"OBJECT_NAME":"QIANFAN-140","OBJECT_ID":"2026-104P","EPOCH":"2026-07-15T22:18:26.008416","CLASSIFICATION_TYPE":"U","MEAN_MOTION":13.5679353,"ECCENTRICITY":0.00079689,"INCLINATION":88.9896,"RA_OF_ASC_NODE":338.5401,"ARG_OF_PERICENTER":10.4903,"MEAN_ANOMALY":349.6416,"EPHEMERIS_TYPE":0,"NORAD_CAT_ID":69086,"ELEMENT_SET_NO":999,"REV_AT_EPOCH":903,"BSTAR":-0.000007627591,"MEAN_MOTION_DOT":7e-8,"MEAN_MOTION_DDOT":0},{"OBJECT_NAME":"QIANFAN-141","OBJECT_ID":"2026-104Q","EPOCH":"2026-07-15T18:01:48.608256","CLASSIFICATION_TYPE":"U","MEAN_MOTION":13.56802352,"ECCENTRICITY":0.00075835,"INCLINATION":88.9892,"RA_OF_ASC_NODE":338.5326,"ARG_OF_PERICENTER":21.4977,"MEAN_ANOMALY":338.6495,"EPHEMERIS_TYPE":0,"NORAD_CAT_ID":69087,"ELEMENT_SET_NO":999,"REV_AT_EPOCH":902,"BSTAR":-3.0008904,"MEAN_MOTION_DOT":-0.01992621,"MEAN_MOTION_DDOT":0},{"OBJECT_NAME":"QIANFAN-142","OBJECT_ID":"2026-104R","EPOCH":"2026-07-15T22:55:21.002880","CLASSIFICATION_TYPE":"U","MEAN_MOTION":13.57841876,"ECCENTRICITY":0.00089611,"INCLINATION":88.9893,"RA_OF_ASC_NODE":338.5062,"ARG_OF_PERICENTER":10.5893,"MEAN_ANOMALY":349.5449,"EPHEMERIS_TYPE":0,"NORAD_CAT_ID":69088,"ELEMENT_SET_NO":999,"REV_AT_EPOCH":905,"BSTAR":-0.00014351011,"MEAN_MOTION_DOT":-9.1e-7,"MEAN_MOTION_DDOT":0},{"OBJECT_NAME":"QIANFAN-143","OBJECT_ID":"2026-104S","EPOCH":"2026-07-15T21:44:15.887616","CLASSIFICATION_TYPE":"U","MEAN_MOTION":13.57826647,"ECCENTRICITY":0.00099327,"INCLINATION":88.9901,"RA_OF_ASC_NODE":338.5178,"ARG_OF_PERICENTER":4.7491,"MEAN_ANOMALY":355.3757,"EPHEMERIS_TYPE":0,"NORAD_CAT_ID":69089,"ELEMENT_SET_NO":999,"REV_AT_EPOCH":904,"BSTAR":-0.000053583959,"MEAN_MOTION_DOT":-2.6e-7,"MEAN_MOTION_DDOT":0},{"OBJECT_NAME":"QIANFAN-144","OBJECT_ID":"2026-104T","EPOCH":"2026-07-15T19:02:28.461408","CLASSIFICATION_TYPE":"U","MEAN_MOTION":13.48696952,"ECCENTRICITY":0.00140356,"INCLINATION":88.9897,"RA_OF_ASC_NODE":338.5376,"ARG_OF_PERICENTER":355.3462,"MEAN_ANOMALY":4.7555,"EPHEMERIS_TYPE":0,"NORAD_CAT_ID":69090,"ELEMENT_SET_NO":999,"REV_AT_EPOCH":902,"BSTAR":-3.0587781,"MEAN_MOTION_DOT":-0.01782939,"MEAN_MOTION_DDOT":0}]}
